OBJECT_NAME,OBJECT_ID,EPOCH,MEAN_MOTION,ECCENTRICITY,INCLINATION,RA_OF_ASC_NODE,ARG_OF_PERICENTER,MEAN_ANOMALY,EPHEMERIS_TYPE,CLASSIFICATION_TYPE,NORAD_CAT_ID,ELEMENT_SET_NO,REV_AT_EPOCH,BSTAR,MEAN_MOTION_DOT,MEAN_MOTION_DDOT
CUBEBUG-2 (LO-74),2013-066AA,2026-06-25T20:06:56.471040,14.93829236,.0057564,97.8903,125.8528,0.5259,359.6011,0,U,39440,999,67828,.41819E-3,.4524E-4,0
FUNCUBE-1 (AO-73),2013-066AE,2026-06-25T20:56:49.257312,15.09583656,.0036539,97.8271,148.5000,171.4630,188.7228,0,U,39444,999,68097,.50757E-3,.8216E-4,0
UWE-3,2013-066AG,2026-06-25T20:06:32.092416,14.97092153,.0046808,97.8708,132.9703,291.8607,67.7640,0,U,39446,999,67887,.38106E-3,.4431E-4,0
UNISAT-6,2014-033C,2026-06-25T16:07:36.847200,14.88284498,.0045787,97.7883,329.2349,42.0208,318.4506,0,U,40012,999,64742,.2774E-3,.2557E-4,0
DUCHIFAT-1,2014-033M,2026-06-25T17:10:11.457696,15.66313669,.0001518,98.0450,237.0839,101.6443,258.4986,0,U,40021,999,65708,.13462E-2,.141113E-2,0
QB50P1,2014-033R,2026-06-25T20:23:06.497664,15.18382181,.0008695,98.0964,188.6029,184.5667,175.5487,0,U,40025,999,65434,.49283E-3,.1007E-3,0
LILACSAT-2,2015-049K,2026-06-25T20:23:47.075424,15.51716024,.0006309,97.4640,214.0215,206.2175,153.8759,0,U,40908,999,59709,.34078E-3,.20233E-3,0
FOX-1A (AO-85),2015-058D,2026-06-25T14:27:49.328064,14.91002790,.0130949,64.7749,252.8304,53.3196,307.9866,0,U,40967,999,11482,.21247E-3,.2302E-4,0
CAS-2T & KS-1Q,2016-066G,2026-06-25T16:34:03.380160,14.44720464,.0342905,98.3821,252.3295,103.7696,260.1902,0,U,41847,999,50602,.23081E-3,.1601E-4,0
RADFXSAT (FOX-1B),2017-073E,2026-06-25T14:36:06.350112,15.12826697,.014863,97.4699,43.6511,299.9037,58.7499,0,U,43017,999,46666,.35687E-3,.8156E-4,0
DIWATA-2B,2018-084H,2026-06-25T20:08:26.060928,15.00488201,.0012987,98.1205,13.4248,142.9555,217.2566,0,U,43678,999,41751,.20738E-3,.255E-4,0
ES'HAIL 2,2018-090A,2026-06-25T16:08:40.198272,1.00274106,.0002207,0.0185,341.0996,148.5722,52.1049,0,U,43700,999,2776,0,.155E-5,0
FOX-1CLIFF (AO-95),2018-099N,2026-06-25T15:55:09.564096,15.26877140,.0007199,97.4386,236.8787,324.2566,35.8190,0,U,43770,999,41451,.53097E-3,.13967E-3,0
ITASAT,2018-099AE,2026-06-25T17:11:51.112320,15.19154130,.0011253,97.4030,228.0580,328.7012,31.3551,0,U,43786,999,41420,.36279E-3,.7572E-4,0
JY1SAT (JO-97),2018-099AX,2026-06-25T16:58:54.866208,15.33907145,.0004971,97.4133,239.5721,224.1915,135.8931,0,U,43803,999,41493,.65238E-3,.2136E-3,0
UWE-4,2018-111E,2026-06-25T18:09:52.144128,15.46632165,.0004388,97.5842,105.5453,298.2824,61.7982,0,U,43880,999,41210,.81038E-3,.40469E-3,0
TIANYAN 01,2019-093C,2026-06-25T20:42:14.544576,14.86529062,.0014973,97.7532,248.8834,61.0477,299.2238,0,U,44881,999,35270,.1883E-4,.113E-5,0
RS-44 & BREEZE-KM R/B,2019-096E,2026-06-25T20:09:07.562304,12.79748974,.021845,82.5225,333.9544,124.0164,238.1898,0,U,44909,999,30345,.34149E-4,.22E-6,0
SALSAT,2020-068K,2026-06-25T17:08:00.529728,15.29911798,.00078,97.8851,180.2981,271.7296,88.3050,0,U,46495,999,31666,.30719E-3,.8822E-4,0
XW-3 (CAS-9),2021-131B,2026-06-25T20:53:59.508096,14.41364504,.0005361,98.4981,269.2136,76.5332,283.6454,0,U,50466,999,23636,.15726E-3,.465E-5,0
GREENCUBE (IO-117),2022-080E,2026-06-25T17:51:47.627136,6.42583224,.0008975,70.1444,295.2691,287.7502,72.2178,0,U,53109,999,9261,0,-.3E-7,0
UMKA 1 (RS40S),2023-091G,2026-06-25T20:16:09.641856,15.20910648,.0014303,97.5052,235.5085,90.9703,269.3171,0,U,57172,999,16532,.33819E-3,.7431E-4,0
CUBESX-HSE 3 (RS42S),2023-091N,2026-06-25T20:45:20.180160,15.31420364,.0011593,97.5094,242.5620,67.6729,292.5740,0,U,57178,999,16575,.53437E-3,.16185E-3,0
MONITOR-3 (RS58S),2023-091Q,2026-06-25T20:14:00.688128,15.28005767,.0012812,97.5087,240.3529,74.0876,286.1774,0,U,57180,999,16561,.46191E-3,.12582E-3,0
MONITOR-4 (RS57S),2023-091S,2026-06-25T19:43:09.586272,15.28089775,.0012816,97.5080,240.3029,74.3769,285.8884,0,U,57182,999,16561,.43686E-3,.11925E-3,0
MONITOR-2 (RS39S),2023-091U,2026-06-25T19:27:36.654624,15.18984502,.0012765,97.5074,235.0379,85.0899,275.1793,0,U,57184,999,16526,.25306E-3,.5235E-4,0
SVYATOBOR 1 (RS60S),2023-091X,2026-06-25T20:12:46.849824,15.26752355,.0010571,97.5092,240.7072,68.3707,291.8656,0,U,57187,999,16563,.39714E-3,.10391E-3,0
VIZARD-METEO (RS38S),2023-091Z,2026-06-25T19:28:12.760320,15.36282701,.0007641,97.5094,246.4700,51.2377,308.9548,0,U,57189,999,16601,.57332E-3,.20243E-3,0
POLYTECH-UNIVERSE 3 (RS46S),2023-091AB,2026-06-25T20:05:07.543968,15.19190077,.0017087,97.5049,234.5681,99.4632,260.8535,0,U,57191,999,16526,.29553E-3,.6173E-4,0
UTMN 2 (RS27S),2023-091AP,2026-06-25T19:29:49.043616,15.32248056,.0008703,97.5090,244.1534,57.8410,302.3674,0,U,57203,999,16586,.48595E-3,.15081E-3,0
